[
    {
        "Altitude(m)": 705348.2994505992,
        "Argument of Periapsis(deg)": 0.006834072711976239,
        "Eccentricity": 0.0,
        "Inclination(deg)": 45.0,
        "Latitude(deg)": 36.026921148524835,
        "Longitude(deg)": 115.87974358929432,
        "Mean Anomaly(deg)": 56.01082998848848,
        "RAAN(deg)": 169.99354883512507,
        "Satellite Name": "Constellation 1 751",
        "Satellite Number": 751,
        "Semi-Major Axis(m)": 7083131.272910544,
        "Time(s)": 114
    },
    {
        "Altitude(m)": 705354.173237301,
        "Argument of Periapsis(deg)": 0.006894020718221645,
        "Eccentricity": 0.0,
        "Inclination(deg)": 45.0,
        "Latitude(deg)": 36.05665099882309,
        "Longitude(deg)": 115.9410491635245,
        "Mean Anomaly(deg)": 56.0715311287384,
        "RAAN(deg)": 169.99349224595952,
        "Satellite Name": "Constellation 1 751",
        "Satellite Number": 751,
        "Semi-Major Axis(m)": 7083131.272910544,
        "Time(s)": 115
    },
    {
        "Altitude(m)": 705360.0441786121,
        "Argument of Periapsis(deg)": 0.006953968724467052,
        "Eccentricity": 0.0,
        "Inclination(deg)": 45.0,
        "Latitude(deg)": 36.08634499149898,
        "Longitude(deg)": 116.0024038987796,
        "Mean Anomaly(deg)": 56.13223226898828,
        "RAAN(deg)": 169.99343565679393,
        "Satellite Name": "Constellation 1 751",
        "Satellite Number": 751,
        "Semi-Major Axis(m)": 7083131.272910544,
        "Time(s)": 116
    },
    {
        "Altitude(m)": 705365.9122375986,
        "Argument of Periapsis(deg)": 0.007013916730712457,
        "Eccentricity": 0.0,
        "Inclination(deg)": 45.0,
        "Latitude(deg)": 36.116003061345914,
        "Longitude(deg)": 116.06380782626344,
        "Mean Anomaly(deg)": 56.192933409238194,
        "RAAN(deg)": 169.99337906762838,
        "Satellite Name": "Constellation 1 751",
        "Satellite Number": 751,
        "Semi-Major Axis(m)": 7083131.272910544,
        "Time(s)": 117
    },
    {
        "Altitude(m)": 705371.777377343,
        "Argument of Periapsis(deg)": 0.007073864736957864,
        "Eccentricity": 0.0,
        "Inclination(deg)": 45.0,
        "Latitude(deg)": 36.14562514310111,
        "Longitude(deg)": 116.12526097693184,
        "Mean Anomaly(deg)": 56.253634549488076,
        "RAAN(deg)": 169.99332247846283,
        "Satellite Name": "Constellation 1 751",
        "Satellite Number": 751,
        "Semi-Major Axis(m)": 7083131.272910544,
        "Time(s)": 118
    },
    {
        "Altitude(m)": 705377.6395609647,
        "Argument of Periapsis(deg)": 0.0071338127432032696,
        "Eccentricity": 0.0,
        "Inclination(deg)": 45.0,
        "Latitude(deg)": 36.17521117144598,
        "Longitude(deg)": 116.18676321339474,
        "Mean Anomaly(deg)": 56.31433568973799,
        "RAAN(deg)": 169.99326588929722,
        "Satellite Name": "Constellation 1 751",
        "Satellite Number": 751,
        "Semi-Major Axis(m)": 7083131.272910544,
        "Time(s)": 119
    },
    {
        "Altitude(m)": 705383.4987516204,
        "Argument of Periapsis(deg)": 0.007193760749448674,
        "Eccentricity": 0.0,
        "Inclination(deg)": 45.0,
        "Latitude(deg)": 36.204761081005955,
        "Longitude(deg)": 116.24831490230328,
        "Mean Anomaly(deg)": 56.3750368299879,
        "RAAN(deg)": 169.99320930013167,
        "Satellite Name": "Constellation 1 751",
        "Satellite Number": 751,
        "Semi-Major Axis(m)": 7083131.272910544,
        "Time(s)": 120
    },
    {
        "Altitude(m)": 705389.354912486,
        "Argument of Periapsis(deg)": 0.007253708755694079,
        "Eccentricity": 0.0,
        "Inclination(deg)": 45.0,
        "Latitude(deg)": 36.234274806351394,
        "Longitude(deg)": 116.30991590576544,
        "Mean Anomaly(deg)": 56.43573797023779,
        "RAAN(deg)": 169.99315271096611,
        "Satellite Name": "Constellation 1 751",
        "Satellite Number": 751,
        "Semi-Major Axis(m)": 7083131.272910544,
        "Time(s)": 121
    },
    {
        "Altitude(m)": 705395.208006775,
        "Argument of Periapsis(deg)": 0.0073136567619394854,
        "Eccentricity": 0.0,
        "Inclination(deg)": 45.0,
        "Latitude(deg)": 36.26375228199741,
        "Longitude(deg)": 116.3715662537334,
        "Mean Anomaly(deg)": 56.49643911048771,
        "RAAN(deg)": 169.99309612180053,
        "Satellite Name": "Constellation 1 751",
        "Satellite Number": 751,
        "Semi-Major Axis(m)": 7083131.272910544,
        "Time(s)": 122
    },
    {
        "Altitude(m)": 705401.0579977323,
        "Argument of Periapsis(deg)": 0.0073736047681848904,
        "Eccentricity": 0.0,
        "Inclination(deg)": 45.0,
        "Latitude(deg)": 36.293193442404274,
        "Longitude(deg)": 116.43326597590507,
        "Mean Anomaly(deg)": 56.557140250737554,
        "RAAN(deg)": 169.99303953263498,
        "Satellite Name": "Constellation 1 751",
        "Satellite Number": 751,
        "Semi-Major Axis(m)": 7083131.272910544,
        "Time(s)": 123
    },
    {
        "Altitude(m)": 705406.9048486295,
        "Argument of Periapsis(deg)": 0.007433552774430298,
        "Eccentricity": 0.0,
        "Inclination(deg)": 45.0,
        "Latitude(deg)": 36.32259822197761,
        "Longitude(deg)": 116.49501510172266,
        "Mean Anomaly(deg)": 56.6178413909875,
        "RAAN(deg)": 169.99298294346937,
        "Satellite Name": "Constellation 1 751",
        "Satellite Number": 751,
        "Semi-Major Axis(m)": 7083131.272910544,
        "Time(s)": 124
    },
    {
        "Altitude(m)": 705412.7485227715,
        "Argument of Periapsis(deg)": 0.007493500780675703,
        "Eccentricity": 0.0,
        "Inclination(deg)": 45.0,
        "Latitude(deg)": 36.351966555068685,
        "Longitude(deg)": 116.5568136603713,
        "Mean Anomaly(deg)": 56.67854253123738,
        "RAAN(deg)": 169.99292635430382,
        "Satellite Name": "Constellation 1 751",
        "Satellite Number": 751,
        "Semi-Major Axis(m)": 7083131.272910544,
        "Time(s)": 125
    },
    {
        "Altitude(m)": 705418.5889834982,
        "Argument of Periapsis(deg)": 0.007553448786921108,
        "Eccentricity": 0.0,
        "Inclination(deg)": 45.0,
        "Latitude(deg)": 36.38129837597484,
        "Longitude(deg)": 116.61866151268057,
        "Mean Anomaly(deg)": 56.739243671487294,
        "RAAN(deg)": 169.99286976513827,
        "Satellite Name": "Constellation 1 751",
        "Satellite Number": 751,
        "Semi-Major Axis(m)": 7083131.272910544,
        "Time(s)": 126
    },
    {
        "Altitude(m)": 705424.4261941753,
        "Argument of Periapsis(deg)": 0.007613396793166514,
        "Eccentricity": 0.0,
        "Inclination(deg)": 45.0,
        "Latitude(deg)": 36.410593618939274,
        "Longitude(deg)": 116.68055902351205,
        "Mean Anomaly(deg)": 56.799944811737156,
        "RAAN(deg)": 169.99281317597269,
        "Satellite Name": "Constellation 1 751",
        "Satellite Number": 751,
        "Semi-Major Axis(m)": 7083131.272910544,
        "Time(s)": 127
    },
    {
        "Altitude(m)": 705430.2601182101,
        "Argument of Periapsis(deg)": 0.007673344799411918,
        "Eccentricity": 0.0,
        "Inclination(deg)": 45.0,
        "Latitude(deg)": 36.43985221815202,
        "Longitude(deg)": 116.74250605317455,
        "Mean Anomaly(deg)": 56.86064595198707,
        "RAAN(deg)": 169.9927565868071,
        "Satellite Name": "Constellation 1 751",
        "Satellite Number": 751,
        "Semi-Major Axis(m)": 7083131.272910544,
        "Time(s)": 128
    },
    {
        "Altitude(m)": 705436.0907190262,
        "Argument of Periapsis(deg)": 0.007733292805657325,
        "Eccentricity": 0.0,
        "Inclination(deg)": 45.0,
        "Latitude(deg)": 36.46907410774967,
        "Longitude(deg)": 116.80450262981148,
        "Mean Anomaly(deg)": 56.92134709223698,
        "RAAN(deg)": 169.99269999764155,
        "Satellite Name": "Constellation 1 751",
        "Satellite Number": 751,
        "Semi-Major Axis(m)": 7083131.272910544,
        "Time(s)": 129
    },
    {
        "Altitude(m)": 705441.9179600952,
        "Argument of Periapsis(deg)": 0.00779324081190273,
        "Eccentricity": 0.0,
        "Inclination(deg)": 45.0,
        "Latitude(deg)": 36.49825922181593,
        "Longitude(deg)": 116.86654878130258,
        "Mean Anomaly(deg)": 56.98204823248686,
        "RAAN(deg)": 169.99264340847597,
        "Satellite Name": "Constellation 1 751",
        "Satellite Number": 751,
        "Semi-Major Axis(m)": 7083131.272910544,
        "Time(s)": 130
    },
    {
        "Altitude(m)": 705447.7418049108,
        "Argument of Periapsis(deg)": 0.007853188818148135,
        "Eccentricity": 0.0,
        "Inclination(deg)": 45.0,
        "Latitude(deg)": 36.52740749438178,
        "Longitude(deg)": 116.92864453526232,
        "Mean Anomaly(deg)": 57.04274937273678,
        "RAAN(deg)": 169.99258681931042,
        "Satellite Name": "Constellation 1 751",
        "Satellite Number": 751,
        "Semi-Major Axis(m)": 7083131.272910544,
        "Time(s)": 131
    },
    {
        "Altitude(m)": 705453.5622170068,
        "Argument of Periapsis(deg)": 0.007913136824393542,
        "Eccentricity": 0.0,
        "Inclination(deg)": 45.0,
        "Latitude(deg)": 36.55651885942577,
        "Longitude(deg)": 116.99078991903865,
        "Mean Anomaly(deg)": 57.10345051298667,
        "RAAN(deg)": 169.99253023014484,
        "Satellite Name": "Constellation 1 751",
        "Satellite Number": 751,
        "Semi-Major Axis(m)": 7083131.272910544,
        "Time(s)": 132
    }
]